COSMOS 2532 (RODNIK-S *)
1 43753U 18097C   26193.62236436  .00000048  00000+0  27367-3 0  9999
2 43753  82.5114 206.3361 0018146   6.4365 353.6945 12.42910635345437
MINXSS-2                
1 43758U 18099A   26192.78887213  .00024308  00000+0  45525-3 0  9998
2 43758  97.4535 269.8221 0008379 170.8889 189.2515 15.48644977417930
SIRION PATHFINDER-2     
1 43759U 18099B   26192.69136833  .00003035  00000+0  16708-3 0  9999
2 43759  97.4245 241.1675 0008128 204.5244 155.5602 15.14760800416330
AISTECHSAT 2            
1 43768U 18099L   26193.57407510  .00002788  00000+0  14984-3 0  9998
2 43768  97.4282 241.0538 0004352 188.9023 171.2134 15.15698033416124
FOX-1CLIFF (AO-95)      
1 43770U 18099N   26193.11057704  .00007092  00000+0  26835-3 0  9998
2 43770  97.4378 253.2714 0007052 252.7613 107.2854 15.27232320417023
RANGE-A                 
1 43773U 18099R   26193.56589298  .00002183  00000+0  12512-3 0  9991
2 43773  97.3956 235.4036 0008547 255.9276 104.1006 15.13595083416337
SNUSAT-2                
1 43782U 18099AA  26193.57895174  .00004801  00000+0  21177-3 0  9991
2 43782  97.4051 246.5762 0009930 197.0195 163.0710 15.22214772416896
SNUGLITE                
1 43784U 18099AC  26193.10330647  .00007154  00000+0  26686-3 0  9995
2 43784  97.3862 247.1441 0003307 167.6677 192.4643 15.27714104417125
ITASAT                  
1 43786U 18099AE  26193.57753642  .00003643  00000+0  17529-3 0  9997
2 43786  97.4019 244.5851 0010762 260.9227  99.0790 15.19362010416769
EAGLET-I                
1 43790U 18099AJ  26193.58069119  .00001913  00000+0  11153-3 0  9997
2 43790  97.4222 242.5773 0009507 254.7473 105.2708 15.13122395416178
ESEO                    
1 43792U 18099AL  26193.59047404  .00001353  00000+0  10118-3 0  9991
2 43792  97.3954 229.8897 0010833 243.8812 116.1300 15.04314971415627
THEA                    
1 43796U 18099AQ  26193.16226932  .00011171  00000+0  32201-3 0  9999
2 43796  97.4439 263.1100 0007724 184.4059 175.7118 15.35866498416524
ASTROCAST 0.1           
1 43798U 18099AS  26192.78726164  .00023019  00000+0  39345-3 0  9990
2 43798  97.4385 272.0791 0005875 144.9859 215.1780 15.51278683418241
JY1SAT (JO-97)          
1 43803U 18099AX  26192.68722269  .00009972  00000+0  30109-3 0  9999
2 43803  97.4124 255.6172 0006517 168.9842 191.1545 15.34443331417382
SUOMI-100               
1 43804U 18099AY  26192.68730980  .00007288  00000+0  26127-3 0  9992
2 43804  97.4182 252.9963 0010197 184.1974 175.9182 15.28978367417168
CENTAURI-1              
1 43809U 18099BD  26193.08198241  .00003411  00000+0  17765-3 0  9992
2 43809  97.4213 244.2684 0012751 236.7539 123.2473 15.16606332416278
GLOBAL-2                
1 43812U 18099BG  26193.54257933  .00001252  00000+0  83393-4 0  9993
2 43812  97.3547 229.0016 0007550  74.5757 285.6306 15.08816851415730
SEAHAWK-1               
1 43820U 18099BQ  26192.64306046  .00005177  00000+0  22168-3 0  9994
2 43820  97.3948 244.7594 0007480 211.7845 148.2941 15.23202069416258
SAUDISAT 5A             
1 43831U 18102A   26193.63639568  .00003172  00000+0  11756-3 0  9993
2 43831  97.3058 254.7287 0010648  51.8363 308.3835 15.28304667419560
SAUDISAT 5B             
1 43833U 18102C   26193.65107348  .00003104  00000+0  11425-3 0  9991
2 43833  97.3167 257.8589 0011413  53.2184 307.0102 15.28548813419689
ISAT                    
1 43879U 18111D   26192.80088528  .00078043  00000+0  63878-3 0  9998
2 43879  97.5861 130.0063 0007139 146.3017 213.8700 15.70261010415020
UWE-4                   
1 43880U 18111E   26193.24905297  .00020464  00000+0  39697-3 0  9996
2 43880  97.5842 122.8225 0005735 206.6658 153.4298 15.47689372414659
D-STAR ONE (SPARROW)    
1 43881U 18111F   26192.78835271  .00172546  00000+0  77361-3 0  9998
2 43881  97.6096 136.1309 0006711 142.9832 217.1901 15.83665674415259
JILIN-1 09              
1 43943U 19005B   26193.58056161  .00002572  00000+0  12007-3 0  9999
2 43943  97.4747 288.3299 0002544  41.7819 318.3610 15.20727470413004
JILIN-1 10              
1 43946U 19005E   26193.57125072  .00003511  00000+0  13939-3 0  9998
2 43946  97.4797 292.3807 0008321 178.6175 181.5087 15.25989104413182
EGYPTSAT-A (MISRSAT-A)  
1 44047U 19008A   26193.62858083  .00000766  00000+0  12889-3 0  9997
2 44047  98.0188 258.0479 0001726  95.1289 265.0116 14.72336516396984
EMISAT                  
1 44078U 19018A   26193.65002088  .00000209  00000+0  74350-4 0  9995
2 44078  98.4641 252.3087 0019215 138.4256 221.8400 14.43649048383735
JILIN-1 GAOFEN 3A       
1 44312U 19032C   26193.50020398  .00005515  00000+0  17833-3 0  9997
2 44312  44.9729 217.5664 0004691  84.2828 275.8592 15.33155930391729
WT 1B                   
1 44316U 19032G   26193.64022610  .00005692  00000+0  21692-3 0  9999
2 44316  44.9738 281.9546 0008582  20.5169 339.6056 15.27692629390975
